BEIDOU-2 G7             
1 41586U 16037A   26182.05530701 -.00000344  00000+0  00000+0 0  9991
2 41586   1.7532  69.4272 0006794   3.1720 336.9759  1.00270345  7026
ABS-2A (MONGOLSAT-1)    
1 41588U 16038A   26182.17162233  .00000000  00000+0  00000+0 0  9996
2 41588   0.0272  22.8096 0001749  24.1536   8.7968  1.00268217 36844
EUTELSAT 117 WEST B     
1 41589U 16038B   26181.99110899 -.00000001  00000+0  00000+0 0  9999
2 41589   0.0226 113.5347 0000237 125.0097 280.3059  1.00269383 36805
BRISAT                  
1 41591U 16039A   26181.97277416  .00000000  00000+0  00000+0 0  9998
2 41591   0.0211   1.9390 0002223  91.6343 326.1522  1.00268841 36744
ECHOSTAR 18             
1 41592U 16039B   26182.07339691  .00000000  00000+0  00000+0 0  9995
2 41592   0.0256  33.7704 0001761  70.6788 139.7453  1.00269428 36767
CARTOSAT-2C             
1 41599U 16040A   26182.15549222  .00003907  00000+0  18809-3 0  9995
2 41599  97.4480 241.9409 0010482  89.4961 270.7474 15.19299280555836
SKYSAT-C1               
1 41601U 16040C   26182.02378833  .00011192  00000+0  31587-3 0  9996
2 41601  96.9551 212.9947 0002002  28.2182 331.9171 15.36534257559993
LAPAN-A3                
1 41603U 16040E   26182.22370973  .00003745  00000+0  11901-3 0  9990
2 41603  97.1489 177.9090 0009112 335.3229  24.7577 15.33195064556967
MUOS-5                  
1 41622U 16041A   26182.18169632 -.00000116  00000+0  00000+0 0  9999
2 41622   2.1745 301.9096 0198388 260.5744  36.9945  1.00272702 37220
SJ 16-02                
1 41634U 16043A   26182.21012491  .00001444  00000+0  13948-3 0  9991
2 41634  75.0029 252.4287 0007891 351.6159   8.4896 14.93616948543231
TIANTONG-1 1            
1 41725U 16048A   26182.10561769 -.00000309  00000+0  00000+0 0  9993
2 41725   3.8745  43.5233 0005897  52.9515 322.1093  1.00269149 36410
GAOFEN-3                
1 41727U 16049A   26182.16770829  .00000052  00000+0  29064-4 0  9991
2 41727  98.4006 189.7424 0001668  95.1171 265.0209 14.42217210520667
JCSAT-16                
1 41729U 16050A   26181.82888449 -.00000237  00000+0  00000+0 0  9995
2 41729   0.0179  18.2390 0002058 108.1310 234.8793  1.00287418 36202
USA 270                 
1 41744U 16052A   26176.62624484 -.00000284  00000+0  00000+0 0  9995
2 41744   4.2178  77.0981 0000668 157.1810  56.2495  0.99500516 28218
USA 271                 
1 41745U 16052B   26176.75914149 -.00000236  00000+0  00000+0 0  9997
2 41745   4.1909  77.1447 0001955 290.7679 281.9940  0.99833204 28007
INTELSAT 36 (IS-36)     
1 41747U 16053A   26182.17040897 -.00000014  00000+0  00000+0 0  9997
2 41747   0.0104  16.3738 0002100 332.8834  59.8194  1.00270586 36095
INSAT-3DR               
1 41752U 16054A   26182.10015765 -.00000067  00000+0  00000+0 0  9991
2 41752   0.1393  85.9865 0010057 186.5089 116.6999  1.00272393 35958
PERUSAT 1               
1 41770U 16058A   26182.16296711  .00000113  00000+0  34171-4 0  9995
2 41770  98.2025 255.6301 0001263  88.4826 271.6518 14.58566344521135
SKYSAT-C4               
1 41771U 16058B   26182.02929069  .00020906  00000+0  38714-3 0  9998
2 41771  96.9165 203.2248 0002510 137.9147 222.2298 15.49022400547616
SKYSAT-C5               
1 41772U 16058C   26182.05839470  .00009675  00000+0  29014-3 0  9991
2 41772  97.0459 222.0804 0001770 196.4961 163.6226 15.34666451545872
SKYSAT-C2               
1 41773U 16058D   26182.01484269  .00014290  00000+0  33264-3 0  9991
2 41773  97.0157 203.5909 0003340  38.8322 321.3166 15.42382724547182
SKYSAT-C3               
1 41774U 16058E   26182.06280977  .00031215  00000+0  49848-3 0  9998
2 41774  96.9000 212.3802 0001375 130.0913 230.0462 15.53133828548261
PISAT                   
1 41784U 16059B   26181.97139426  .00001019  00000+0  18071-3 0  9994
2 41784  97.8181 181.8319 0029555 158.6922 201.5522 14.69007441521764
ALSAT-1B                
1 41785U 16059C   26182.17263201 -.00000037  00000+0  16573-5 0  9994
2 41785  97.7743 190.3325 0009225 172.0786 188.0569 14.72283624522630
ALSAT-2B                
1 41786U 16059D   26182.15645288  .00000697  00000+0  12189-3 0  9990
2 41786  97.9895 244.1596 0001721 113.4435 246.6953 14.70890055522821
PATHFINDER 1            
1 41787U 16059E   26181.97637546  .00000646  00000+0  12102-3 0  9997
2 41787  97.8168 180.6304 0028926 159.5279 200.7093 14.67678797521736
SCATSAT 1               
1 41790U 16059H   26182.07738152  .00001452  00000+0  19679-3 0  9990
2 41790  98.1186 245.9867 0054163 201.9871 157.9016 14.79557620103643
GSAT-18                 
1 41793U 16060A   26182.10015765 -.00000066  00000+0  00000+0 0  9992
2 41793   0.0473  93.2619 0005909 344.2940 311.6366  1.00272125 35665
SKY MUSTER 2 (NBN1B)    
1 41794U 16060B   26182.18549307 -.00000234  00000+0  00000+0 0  9992
2 41794   0.0171 336.1416 0001780 122.7493  31.9254  1.00269946 35665
HIMAWARI-9              
1 41836U 16064A   26182.17961112 -.00000265  00000+0  00000+0 0  9998
2 41836   0.0345 265.6813 0001355 213.6321   5.3269  1.00268966 35358
SHIJIAN-17 (SJ-17)      
1 41838U 16065A   26181.77177065  .00000130  00000+0  00000+0 0  9992
2 41838   5.7854  72.4442 0002242  32.9051 306.8431  0.99860394 35335
